STARLINK-31348          
1 59172U 24044W   25253.33307809  .00033172  00000+0  12088-2 0  9994
2 59172  43.0019 358.7667 0000520 267.9659  92.1133 15.27600104 86522
STARLINK-31289          
1 59173U 24044X   25253.40915382  .00000997  00000+0  45774-4 0  9993
2 59173  43.0032  45.1841 0000959 268.9110  91.1632 15.27566435 86024
STARLINK-31283          
1 59174U 24044Y   25253.58335648  .00006583  00000+0  24855-3 0  9997
2 59174  43.0024 357.2557 0001548 267.7531  72.7428 15.27577245  5813
STARLINK-31439          
1 59178U 24045A   25252.85764152  .00005049  00000+0  19294-3 0  9994
2 59178  43.0011  30.4825 0000621 207.9420 152.1398 15.27567805 21879
STARLINK-31410          
1 59179U 24045B   25253.43252650  .00011208  00000+0  40410-3 0  9993
2 59179  43.0052  30.5193 0002361 302.4682  57.5941 15.28551153 85599
STARLINK-31395          
1 59180U 24045C   25253.40079476 -.00000630  00000+0 -13372-4 0  9992
2 59180  43.0047  31.1469 0000881 255.7564 104.3190 15.27574129 85585
STARLINK-31486          
1 59181U 24045D   25253.38457137  .00000655  00000+0  33325-4 0  9999
2 59181  43.0005  27.5601 0001604 275.6887  84.3782 15.27579390 85624
STARLINK-31411          
1 59182U 24045E   25253.41221400  .00002573  00000+0  10303-3 0  9997
2 59182  43.0014  30.3660 0001927 277.7742  82.2891 15.27566532 85591
STARLINK-31382          
1 59184U 24045G   25253.40706928  .00023457  00000+0  85875-3 0  9991
2 59184  43.0021  30.3258 0005046 286.9789  73.0510 15.27589894 85595
STARLINK-31394          
1 59185U 24045H   25253.42394416  .00000935  00000+0  43505-4 0  9990
2 59185  43.0060  20.0859 0002267 280.5316  79.5281 15.27583249 85718
STARLINK-31403          
1 59186U 24045J   25253.33427053  .00004730  00000+0  18125-3 0  9991
2 59186  43.0023   9.6620 0001453 272.1596  87.9089 15.27592040 85763
STARLINK-31514          
1 59187U 24045K   25253.44048031  .00006932  00000+0  26105-3 0  9992
2 59187  42.9997  30.5757 0001058 220.5215 139.5558 15.27597327 85591
STARLINK-31478          
1 59188U 24045L   25253.43018936 -.00002905  00000+0 -96187-4 0  9999
2 59188  43.0031  30.4963 0001403 269.4601  90.6089 15.27539931 85599
STARLINK-31498          
1 59189U 24045M   25253.39050912  .00002522  00000+0  10113-3 0  9992
2 59189  43.0027  31.0599 0001944 296.8125  63.2527 15.27585402 85588
STARLINK-31563          
1 59190U 24045N   25253.41864240 -.00001374  00000+0 -40416-4 0  9990
2 59190  43.0061  30.4136 0001567 276.3220  83.7453 15.27565057 85598
STARLINK-31551          
1 59191U 24045P   25253.40756348  .00022419  00000+0  82139-3 0  9997
2 59191  42.9979  26.8972 0000438 118.3914 241.6982 15.27593578 85639
