[{"OBJECT_NAME":"STARLINK-31348","OBJECT_ID":"2024-044W","EPOCH":"2025-09-10T07:59:37.946976","MEAN_MOTION":15.27600104,"ECCENTRICITY":5.203e-5,"INCLINATION":43.0019,"RA_OF_ASC_NODE":358.7667,"ARG_OF_PERICENTER":267.9659,"MEAN_ANOMALY":92.1133,"EPHEMERIS_TYPE":0,"CLASSIFICATION_TYPE":"U","NORAD_CAT_ID":59172,"ELEMENT_SET_NO":999,"REV_AT_EPOCH":8652,"BSTAR":0.0012088259,"MEAN_MOTION_DOT":0.00033172,"MEAN_MOTION_DDOT":0},{"OBJECT_NAME":"STARLINK-31289","OBJECT_ID":"2024-044X","EPOCH":"2025-09-10T09:49:10.890048","MEAN_MOTION":15.27566435,"ECCENTRICITY":9.59e-5,"INCLINATION":43.0032,"RA_OF_ASC_NODE":45.1841,"ARG_OF_PERICENTER":268.911,"MEAN_ANOMALY":91.1632,"EPHEMERIS_TYPE":0,"CLASSIFICATION_TYPE":"U","NORAD_CAT_ID":59173,"ELEMENT_SET_NO":999,"REV_AT_EPOCH":8602,"BSTAR":4.5774229e-5,"MEAN_MOTION_DOT":9.97e-6,"MEAN_MOTION_DDOT":0},{"OBJECT_NAME":"STARLINK-31283","OBJECT_ID":"2024-044Y","EPOCH":"2025-09-10T14:00:01.999872","MEAN_MOTION":15.27577245,"ECCENTRICITY":0.00015487,"INCLINATION":43.0024,"RA_OF_ASC_NODE":357.2557,"ARG_OF_PERICENTER":267.7531,"MEAN_ANOMALY":72.7428,"EPHEMERIS_TYPE":0,"CLASSIFICATION_TYPE":"U","NORAD_CAT_ID":59174,"ELEMENT_SET_NO":999,"REV_AT_EPOCH":581,"BSTAR":0.00024855068,"MEAN_MOTION_DOT":6.583e-5,"MEAN_MOTION_DDOT":0},{"OBJECT_NAME":"STARLINK-31439","OBJECT_ID":"2024-045A","EPOCH":"2025-09-09T20:35:00.227328","MEAN_MOTION":15.27567805,"ECCENTRICITY":6.217e-5,"INCLINATION":43.0011,"RA_OF_ASC_NODE":30.4825,"ARG_OF_PERICENTER":207.942,"MEAN_ANOMALY":152.1398,"EPHEMERIS_TYPE":0,"CLASSIFICATION_TYPE":"U","NORAD_CAT_ID":59178,"ELEMENT_SET_NO":999,"REV_AT_EPOCH":2187,"BSTAR":0.00019293979,"MEAN_MOTION_DOT":5.049e-5,"MEAN_MOTION_DDOT":0},{"OBJECT_NAME":"STARLINK-31410","OBJECT_ID":"2024-045B","EPOCH":"2025-09-10T10:22:50.289600","MEAN_MOTION":15.28551153,"ECCENTRICITY":0.00023619,"INCLINATION":43.0052,"RA_OF_ASC_NODE":30.5193,"ARG_OF_PERICENTER":302.4682,"MEAN_ANOMALY":57.5941,"EPHEMERIS_TYPE":0,"CLASSIFICATION_TYPE":"U","NORAD_CAT_ID":59179,"ELEMENT_SET_NO":999,"REV_AT_EPOCH":8559,"BSTAR":0.00040409726,"MEAN_MOTION_DOT":0.00011208,"MEAN_MOTION_DDOT":0},{"OBJECT_NAME":"STARLINK-31395","OBJECT_ID":"2024-045C","EPOCH":"2025-09-10T09:37:08.667264","MEAN_MOTION":15.27574129,"ECCENTRICITY":8.817e-5,"INCLINATION":43.0047,"RA_OF_ASC_NODE":31.1469,"ARG_OF_PERICENTER":255.7564,"MEAN_ANOMALY":104.319,"EPHEMERIS_TYPE":0,"CLASSIFICATION_TYPE":"U","NORAD_CAT_ID":59180,"ELEMENT_SET_NO":999,"REV_AT_EPOCH":8558,"BSTAR":-1.3372278e-5,"MEAN_MOTION_DOT":-6.3e-6,"MEAN_MOTION_DDOT":0},{"OBJECT_NAME":"STARLINK-31486","OBJECT_ID":"2024-045D","EPOCH":"2025-09-10T09:13:46.966368","MEAN_MOTION":15.2757939,"ECCENTRICITY":0.00016046,"INCLINATION":43.0005,"RA_OF_ASC_NODE":27.5601,"ARG_OF_PERICENTER":275.6887,"MEAN_ANOMALY":84.3782,"EPHEMERIS_TYPE":0,"CLASSIFICATION_TYPE":"U","NORAD_CAT_ID":59181,"ELEMENT_SET_NO":999,"REV_AT_EPOCH":8562,"BSTAR":3.33245e-5,"MEAN_MOTION_DOT":6.55e-6,"MEAN_MOTION_DDOT":0},{"OBJECT_NAME":"STARLINK-31411","OBJECT_ID":"2024-045E","EPOCH":"2025-09-10T09:53:35.289600","MEAN_MOTION":15.27566532,"ECCENTRICITY":0.00019279,"INCLINATION":43.0014,"RA_OF_ASC_NODE":30.366,"ARG_OF_PERICENTER":277.7742,"MEAN_ANOMALY":82.2891,"EPHEMERIS_TYPE":0,"CLASSIFICATION_TYPE":"U","NORAD_CAT_ID":59182,"ELEMENT_SET_NO":999,"REV_AT_EPOCH":8559,"BSTAR":0.00010302633,"MEAN_MOTION_DOT":2.573e-5,"MEAN_MOTION_DDOT":0},{"OBJECT_NAME":"STARLINK-31382","OBJECT_ID":"2024-045G","EPOCH":"2025-09-10T09:46:10.785792","MEAN_MOTION":15.27589894,"ECCENTRICITY":0.00050464,"INCLINATION":43.0021,"RA_OF_ASC_NODE":30.3258,"ARG_OF_PERICENTER":286.9789,"MEAN_ANOMALY":73.051,"EPHEMERIS_TYPE":0,"CLASSIFICATION_TYPE":"U","NORAD_CAT_ID":59184,"ELEMENT_SET_NO":999,"REV_AT_EPOCH":8559,"BSTAR":0.00085875154,"MEAN_MOTION_DOT":0.00023457,"MEAN_MOTION_DDOT":0},{"OBJECT_NAME":"STARLINK-31394","OBJECT_ID":"2024-045H","EPOCH":"2025-09-10T10:10:28.775424","MEAN_MOTION":15.27583249,"ECCENTRICITY":0.00022673,"INCLINATION":43.006,"RA_OF_ASC_NODE":20.0859,"ARG_OF_PERICENTER":280.5316,"MEAN_ANOMALY":79.5281,"EPHEMERIS_TYPE":0,"CLASSIFICATION_TYPE":"U","NORAD_CAT_ID":59185,"ELEMENT_SET_NO":999,"REV_AT_EPOCH":8571,"BSTAR":4.350455e-5,"MEAN_MOTION_DOT":9.35e-6,"MEAN_MOTION_DDOT":0},{"OBJECT_NAME":"STARLINK-31403","OBJECT_ID":"2024-045J","EPOCH":"2025-09-10T08:01:20.973792","MEAN_MOTION":15.2759204,"ECCENTRICITY":0.00014535,"INCLINATION":43.0023,"RA_OF_ASC_NODE":9.662,"ARG_OF_PERICENTER":272.1596,"MEAN_ANOMALY":87.9089,"EPHEMERIS_TYPE":0,"CLASSIFICATION_TYPE":"U","NORAD_CAT_ID":59186,"ELEMENT_SET_NO":999,"REV_AT_EPOCH":8576,"BSTAR":0.00018124825,"MEAN_MOTION_DOT":4.73e-5,"MEAN_MOTION_DDOT":0},{"OBJECT_NAME":"STARLINK-31514","OBJECT_ID":"2024-045K","EPOCH":"2025-09-10T10:34:17.498784","MEAN_MOTION":15.27597327,"ECCENTRICITY":0.00010584,"INCLINATION":42.9997,"RA_OF_ASC_NODE":30.5757,"ARG_OF_PERICENTER":220.5215,"MEAN_ANOMALY":139.5558,"EPHEMERIS_TYPE":0,"CLASSIFICATION_TYPE":"U","NORAD_CAT_ID":59187,"ELEMENT_SET_NO":999,"REV_AT_EPOCH":8559,"BSTAR":0.00026104656,"MEAN_MOTION_DOT":6.932e-5,"MEAN_MOTION_DDOT":0},{"OBJECT_NAME":"STARLINK-31478","OBJECT_ID":"2024-045L","EPOCH":"2025-09-10T10:19:28.360704","MEAN_MOTION":15.27539931,"ECCENTRICITY":0.00014032,"INCLINATION":43.0031,"RA_OF_ASC_NODE":30.4963,"ARG_OF_PERICENTER":269.4601,"MEAN_ANOMALY":90.6089,"EPHEMERIS_TYPE":0,"CLASSIFICATION_TYPE":"U","NORAD_CAT_ID":59188,"ELEMENT_SET_NO":999,"REV_AT_EPOCH":8559,"BSTAR":-9.618724e-5,"MEAN_MOTION_DOT":-2.905e-5,"MEAN_MOTION_DDOT":0},{"OBJECT_NAME":"STARLINK-31498","OBJECT_ID":"2024-045M","EPOCH":"2025-09-10T09:22:19.987968","MEAN_MOTION":15.27585402,"ECCENTRICITY":0.00019446,"INCLINATION":43.0027,"RA_OF_ASC_NODE":31.0599,"ARG_OF_PERICENTER":296.8125,"MEAN_ANOMALY":63.2527,"EPHEMERIS_TYPE":0,"CLASSIFICATION_TYPE":"U","NORAD_CAT_ID":59189,"ELEMENT_SET_NO":999,"REV_AT_EPOCH":8558,"BSTAR":0.00010113185,"MEAN_MOTION_DOT":2.522e-5,"MEAN_MOTION_DDOT":0},{"OBJECT_NAME":"STARLINK-31563","OBJECT_ID":"2024-045N","EPOCH":"2025-09-10T10:02:50.703360","MEAN_MOTION":15.27565057,"ECCENTRICITY":0.00015678,"INCLINATION":43.0061,"RA_OF_ASC_NODE":30.4136,"ARG_OF_PERICENTER":276.322,"MEAN_ANOMALY":83.7453,"EPHEMERIS_TYPE":0,"CLASSIFICATION_TYPE":"U","NORAD_CAT_ID":59190,"ELEMENT_SET_NO":999,"REV_AT_EPOCH":8559,"BSTAR":-4.0415921e-5,"MEAN_MOTION_DOT":-1.374e-5,"MEAN_MOTION_DDOT":0},{"OBJECT_NAME":"STARLINK-31551","OBJECT_ID":"2024-045P","EPOCH":"2025-09-10T09:46:53.484672","MEAN_MOTION":15.27593578,"ECCENTRICITY":4.389e-5,"INCLINATION":42.9979,"RA_OF_ASC_NODE":26.8972,"ARG_OF_PERICENTER":118.3914,"MEAN_ANOMALY":241.6982,"EPHEMERIS_TYPE":0,"CLASSIFICATION_TYPE":"U","NORAD_CAT_ID":59191,"ELEMENT_SET_NO":999,"REV_AT_EPOCH":8563,"BSTAR":0.00082139301,"MEAN_MOTION_DOT":0.00022419,"MEAN_MOTION_DDOT":0}]
